         0.0000000       15.4905875     6797.6173272        0.0001359       51.6458000      246.5481000      107.2479000       51.6458000
      1440.0000000       15.4906087     6797.6111114        0.0001359       51.6458000       63.7677806      102.2979698       51.6458000
      2880.0000000       15.4906300     6797.6048951        0.0001359       51.6458000      241.0016172       97.3480237       51.6458000
      4320.0000000       15.4906512     6797.5986783        0.0001358       51.6458000       58.2359663       92.3980618       51.6458000
      5760.0000000       15.4906725     6797.5924611        0.0001358       51.6458000      235.4857172       87.4480841       51.6458000
      7200.0000000       15.4906937     6797.5862435        0.0001358       51.6458000       52.7347718       82.4980906       51.6458000
      8640.0000000       15.4907150     6797.5800254        0.0001358       51.6458000      230.0004017       77.5480812       51.6458000
     10080.0000000       15.4907362     6797.5738068        0.0001358       51.6458000       47.2642045       72.5980560       51.6458000
     11520.0000000       15.4907575     6797.5675878        0.0001358       51.6458000      224.5456727       67.6480149       51.6458000
     12960.0000000       15.4907788     6797.5613684        0.0001358       51.6458000       41.8242716       62.6979581       51.6458000
     14400.0000000       15.4908000     6797.5551485        0.0001358       51.6458000      219.1215324       57.7478853       51.6458000
     15840.0000000       15.4908213     6797.5489281        0.0001357       51.6458000       36.4149799       52.7977968       51.6458000
     17280.0000000       15.4908426     6797.5427073        0.0001357       51.6458000      213.7279832       47.8476924       51.6458000
     18720.0000000       15.4908638     6797.5364860        0.0001357       51.6458000       31.0363362       42.8975722       51.6458000
     20160.0000000       15.4908851     6797.5302643        0.0001357       51.6458000      208.3650277       37.9474362       51.6458000
     21600.0000000       15.4909064     6797.5240422        0.0001357       51.6458000       25.6883469       32.9972843       51.6458000
     23040.0000000       15.4909276     6797.5178196        0.0001357       51.6458000      203.0326689       28.0471166       51.6458000
     24480.0000000       15.4909489     6797.5115965        0.0001357       51.6458000       20.3710181       23.0969330       51.6458000
     25920.0000000       15.4909702     6797.5053730        0.0001357       51.6458000      197.7309099       18.1467336       51.6458000
     27360.0000000       15.4909915     6797.4991490        0.0001356       51.6458000       15.0843558       13.1965184       51.6458000
     28800.0000000       15.4910127     6797.4929246        0.0001356       51.6458000      192.4597543        8.2462874       51.6458000
     30240.0000000       15.4910340     6797.4866997        0.0001356       51.6458000        9.8283654        3.2960405       51.6458000
     31410.3923568       15.4910513     6797.4816400        0.0001356       51.6458000      222.9779816      359.2726045       51.6458000


 1 25544U 98067A   20363.45937427 +.00000548  00000 0  17950-4 0 0999                                                                                                                                                                                                                                                                                                                                                                                                                                                            
 2 25544  51.6458 107.2078 0001327 162.3829 292.0975 15.4923026426213                                                                                                                                                                                                                                                                                                                                                                                                                                                            

         0.0000000       15.4905844     6797.6182427        0.0001327       51.6458000      292.0975000      107.2078000       51.6458000
      1440.0000000       15.4906043     6797.6123984        0.0001327       51.6458000      109.3218941      102.2578726       51.6458000
      2880.0000000       15.4906243     6797.6065537        0.0001327       51.6458000      286.5487872       97.3079303       51.6458000
      4320.0000000       15.4906443     6797.6007087        0.0001326       51.6458000      103.7869135       92.3579731       51.6458000
      5760.0000000       15.4906643     6797.5948632        0.0001327       51.6458000      281.0288538       87.4080011       51.6458000
      7200.0000000       15.4906843     6797.5890174        0.0001326       51.6458000       98.2806970       82.4580141       51.6458000
      8640.0000000       15.4907042     6797.5831711        0.0001326       51.6458000      275.5377006       77.5080123       51.6458000
     10080.0000000       15.4907242     6797.5773244        0.0001326       51.6458000       92.8032517       72.5579956       51.6458000
     11520.0000000       15.4907442     6797.5714774        0.0001326       51.6458000      270.0753287       67.6079640       51.6458000
     12960.0000000       15.4907642     6797.5656299        0.0001326       51.6458000       87.3545849       62.6579175       51.6458000
     14400.0000000       15.4907842     6797.5597821        0.0001326       51.6458000      264.6417387       57.7078561       51.6458000
     15840.0000000       15.4908042     6797.5539338        0.0001326       51.6458000       81.9347037       52.7577798       51.6458000
     17280.0000000       15.4908242     6797.5480852        0.0001326       51.6458000      259.2369316       47.8076887       51.6458000
     18720.0000000       15.4908442     6797.5422361        0.0001325       51.6458000       76.5436155       42.8575826       51.6458000
     20160.0000000       15.4908642     6797.5363867        0.0001325       51.6458000      253.8609082       37.9074617       51.6458000
     21600.0000000       15.4908842     6797.5305369        0.0001325       51.6458000       71.1813275       32.9573259       51.6458000
     23040.0000000       15.4909042     6797.5246866        0.0001325       51.6458000      248.5136695       28.0071752       51.6458000
     24480.0000000       15.4909242     6797.5188360        0.0001325       51.6458000       65.8478467       23.0570096       51.6458000
     25920.0000000       15.4909442     6797.5129849        0.0001325       51.6458000      243.1952165       18.1068291       51.6458000
     27360.0000000       15.4909642     6797.5071335        0.0001325       51.6458000       60.5431802       13.1566338       51.6458000
     28800.0000000       15.4909842     6797.5012817        0.0001325       51.6458000      237.9055504        8.2064235       51.6458000
     30240.0000000       15.4910042     6797.4954294        0.0001324       51.6458000       55.2673350        3.2561984       51.6458000
     31398.7630032       15.4910203     6797.4907199        0.0001324       51.6458000      223.3642152      359.2727586       51.6458000


 1 25544U 98067A   20363.59392067 +.00000558  00000 0  18138-4 0 0999                                                                                                                                                                                                                                                                                                                                                                                                                                                            
 2 25544  51.6459 106.5424 0001311 163.9929 321.3790 15.4923061426215                                                                                                                                                                                                                                                                                                                                                                                                                                                            

